{"type":"FeatureCollection","features":[{"type":"Feature","properties":{"name":"Coquimbo","comuna":"Coquimbo","cut":"04102","metro":"La Serena-Coquimbo","es_bbox":false},"geometry":{"type":"Polygon","coordinates":[[[-71.2882,-29.9493],[-71.2659,-29.9517],[-71.2568,-29.9547],[-71.2433,-29.9521],[-71.238,-29.9605],[-71.2325,-29.9793],[-71.2225,-29.9796],[-71.2129,-29.9879],[-71.2113,-29.9952],[-71.1986,-29.9993],[-71.1829,-30.0003],[-71.1698,-29.9956],[-71.1684,-29.99738620689654],[-71.1684,-30.0551],[-71.3812,-30.0551],[-71.3912,-30.0452],[-71.391,-30.0305],[-71.3867,-30.0263],[-71.3976,-30.0133],[-71.3991,-30.01346956521739],[-71.3991,-29.99064],[-71.3892,-29.9946],[-71.3792,-29.986],[-71.379,-29.9748],[-71.3689,-29.9687],[-71.3662,-29.983],[-71.3572,-29.9833],[-71.3475,-29.9745],[-71.3536,-29.9659],[-71.3633,-29.9629],[-71.3575,-29.9505],[-71.3447,-29.9348],[-71.3357,-29.9339],[-71.3348,-29.9585],[-71.3251,-29.9605],[-71.3102,-29.9571],[-71.2991,-29.9514],[-71.2879,-29.9416],[-71.2882,-29.9493]]]}},{"type":"Feature","properties":{"name":"La Serena","comuna":"La Serena","cut":"04101","metro":"La Serena-Coquimbo","es_bbox":false},"geometry":{"type":"Polygon","coordinates":[[[-71.1698,-29.9956],[-71.1829,-30.0003],[-71.1986,-29.9993],[-71.2113,-29.9952],[-71.2129,-29.9879],[-71.2225,-29.9796],[-71.2325,-29.9793],[-71.238,-29.9605],[-71.2433,-29.9521],[-71.2568,-29.9547],[-71.2659,-29.9517],[-71.2882,-29.9493],[-71.2879,-29.9416],[-71.2799,-29.9282],[-71.2764,-29.9163],[-71.2739,-29.893],[-71.2752,-29.8725],[-71.2798,-29.8417],[-71.2893,-29.8237],[-71.298,-29.8259],[-71.30755625,-29.8215],[-71.1684,-29.8215],[-71.1684,-29.99738620689654],[-71.1698,-29.9956]]]}}]}